STARLINK-36713          
1 67701U 26025J   26048.50002314 -.01610347  76867-3 -37287-2 0  9991
2 67701  97.2767 158.9545 0001268  55.2710 295.4853 15.97266362  2763
STARLINK-36695          
1 67702U 26025K   26048.50002314 -.01588797  75121-3 -36399-2 0  9990
2 67702  97.2763 158.9563 0001310  57.8345 296.9628 15.97457507  2602
STARLINK-36630          
1 67703U 26025L   26048.50002314 -.01592771  75629-3 -36109-2 0  9990
2 67703  97.2763 158.9582 0001315  57.9061 300.8166 15.97649789  2602
STARLINK-36338          
1 67704U 26025M   26048.50002314 -.01563026  73223-3 -34949-2 0  9990
2 67704  97.2761 158.9603 0001256  63.2047 300.6485 15.97897329  2655
STARLINK-36316          
1 67705U 26025N   26048.50002314 -.01563470  73688-3 -33951-2 0  9991
2 67705  97.2756 158.9646 0001261  54.4246 319.7279 15.98427092  2655
STARLINK-36707          
1 67706U 26025P   26048.50002314 -.01548738  72617-3 -33132-2 0  9994
2 67706  97.2752 158.9671 0001263  48.6600 330.8423 15.98694517  2441
STARLINK-36645          
1 67707U 26025Q   26048.50002314 -.01555875  72850-3 -34195-2 0  9994
2 67707  97.2756 158.9622 0001298  50.8665 318.8684 15.98208595  2213
STARLINK-36287          
1 67708U 26025R   26048.50002314 -.01536612  71749-3 -32448-2 0  9998
2 67708  97.2749 158.9684 0001237  56.8700 327.2701 15.98926721  2765
STARLINK-36698          
1 67709U 26025S   26048.50002314 -.01467311  66522-3 -29444-2 0  9993
2 67709  97.2746 158.9761 0001313  49.3293 352.3056 15.99826698  2606
STARLINK-36344          
1 67710U 26025T   26048.50002314 -.01509924  69715-3 -31278-2 0  9997
2 67710  97.2749 158.9714 0001223  54.9099 335.9125 15.99266944  2768
STARLINK-36687          
1 67711U 26025U   26048.50002314 -.01522790  71034-3 -31076-2 0  9997
2 67711  97.2746 158.9737 0001385  50.3643 345.5239 15.99535320  2765
STARLINK-36705          
1 67712U 26025V   26048.50002314 -.01498388  69405-3 -29546-2 0  9991
2 67712  97.2741 158.9783 0001334  53.8576 353.7477 16.00141214  2661
