CCSDS_OMM_VERS = 2.0
CREATION_DATE  = 
ORIGINATOR     = 

OBJECT_NAME    = STARLINK-36713
OBJECT_ID      = 2026-025J
CENTER_NAME    = EARTH
REF_FRAME      = TEME
TIME_SYSTEM    = UTC
MEAN_ELEMENT_THEORY = SGP/SGP4

EPOCH          = 2026-02-17T12:00:01.999296
MEAN_MOTION    = 15.97266362
ECCENTRICITY   = .0001268
INCLINATION    = 97.2767
RA_OF_ASC_NODE = 158.9545
ARG_OF_PERICENTER = 55.2710
MEAN_ANOMALY   = 295.4853

EPHEMERIS_TYPE = 0
CLASSIFICATION_TYPE = U
NORAD_CAT_ID   = 67701
ELEMENT_SET_NO = 999
REV_AT_EPOCH   = 276
BSTAR          = -.37287E-2
MEAN_MOTION_DOT = -.1610347E-1
MEAN_MOTION_DDOT = .76867E-3

CCSDS_OMM_VERS = 2.0
CREATION_DATE  = 
ORIGINATOR     = 

OBJECT_NAME    = STARLINK-36695
OBJECT_ID      = 2026-025K
CENTER_NAME    = EARTH
REF_FRAME      = TEME
TIME_SYSTEM    = UTC
MEAN_ELEMENT_THEORY = SGP/SGP4

EPOCH          = 2026-02-17T12:00:01.999296
MEAN_MOTION    = 15.97457507
ECCENTRICITY   = .000131
INCLINATION    = 97.2763
RA_OF_ASC_NODE = 158.9563
ARG_OF_PERICENTER = 57.8345
MEAN_ANOMALY   = 296.9628

EPHEMERIS_TYPE = 0
CLASSIFICATION_TYPE = U
NORAD_CAT_ID   = 67702
ELEMENT_SET_NO = 999
REV_AT_EPOCH   = 260
BSTAR          = -.36399E-2
MEAN_MOTION_DOT = -.1588797E-1
MEAN_MOTION_DDOT = .75121E-3

CCSDS_OMM_VERS = 2.0
CREATION_DATE  = 
ORIGINATOR     = 

OBJECT_NAME    = STARLINK-36630
OBJECT_ID      = 2026-025L
CENTER_NAME    = EARTH
REF_FRAME      = TEME
TIME_SYSTEM    = UTC
MEAN_ELEMENT_THEORY = SGP/SGP4

EPOCH          = 2026-02-17T12:00:01.999296
MEAN_MOTION    = 15.97649789
ECCENTRICITY   = .0001315
INCLINATION    = 97.2763
RA_OF_ASC_NODE = 158.9582
ARG_OF_PERICENTER = 57.9061
MEAN_ANOMALY   = 300.8166

EPHEMERIS_TYPE = 0
CLASSIFICATION_TYPE = U
NORAD_CAT_ID   = 67703
ELEMENT_SET_NO = 999
REV_AT_EPOCH   = 260
BSTAR          = -.36109E-2
MEAN_MOTION_DOT = -.1592771E-1
MEAN_MOTION_DDOT = .75629E-3

CCSDS_OMM_VERS = 2.0
CREATION_DATE  = 
ORIGINATOR     = 

OBJECT_NAME    = STARLINK-36338
OBJECT_ID      = 2026-025M
CENTER_NAME    = EARTH
REF_FRAME      = TEME
TIME_SYSTEM    = UTC
MEAN_ELEMENT_THEORY = SGP/SGP4

EPOCH          = 2026-02-17T12:00:01.999296
MEAN_MOTION    = 15.97897329
ECCENTRICITY   = .0001256
INCLINATION    = 97.2761
RA_OF_ASC_NODE = 158.9603
ARG_OF_PERICENTER = 63.2047
MEAN_ANOMALY   = 300.6485

EPHEMERIS_TYPE = 0
CLASSIFICATION_TYPE = U
NORAD_CAT_ID   = 67704
ELEMENT_SET_NO = 999
REV_AT_EPOCH   = 265
BSTAR          = -.34949E-2
MEAN_MOTION_DOT = -.1563026E-1
MEAN_MOTION_DDOT = .73223E-3

CCSDS_OMM_VERS = 2.0
CREATION_DATE  = 
ORIGINATOR     = 

OBJECT_NAME    = STARLINK-36316
OBJECT_ID      = 2026-025N
CENTER_NAME    = EARTH
REF_FRAME      = TEME
TIME_SYSTEM    = UTC
MEAN_ELEMENT_THEORY = SGP/SGP4

EPOCH          = 2026-02-17T12:00:01.999296
MEAN_MOTION    = 15.98427092
ECCENTRICITY   = .0001261
INCLINATION    = 97.2756
RA_OF_ASC_NODE = 158.9646
ARG_OF_PERICENTER = 54.4246
MEAN_ANOMALY   = 319.7279

EPHEMERIS_TYPE = 0
CLASSIFICATION_TYPE = U
NORAD_CAT_ID   = 67705
ELEMENT_SET_NO = 999
REV_AT_EPOCH   = 265
BSTAR          = -.33951E-2
MEAN_MOTION_DOT = -.156347E-1
MEAN_MOTION_DDOT = .73688E-3

CCSDS_OMM_VERS = 2.0
CREATION_DATE  = 
ORIGINATOR     = 

OBJECT_NAME    = STARLINK-36707
OBJECT_ID      = 2026-025P
CENTER_NAME    = EARTH
REF_FRAME      = TEME
TIME_SYSTEM    = UTC
MEAN_ELEMENT_THEORY = SGP/SGP4

EPOCH          = 2026-02-17T12:00:01.999296
MEAN_MOTION    = 15.98694517
ECCENTRICITY   = .0001263
INCLINATION    = 97.2752
RA_OF_ASC_NODE = 158.9671
ARG_OF_PERICENTER = 48.6600
MEAN_ANOMALY   = 330.8423

EPHEMERIS_TYPE = 0
CLASSIFICATION_TYPE = U
NORAD_CAT_ID   = 67706
ELEMENT_SET_NO = 999
REV_AT_EPOCH   = 244
BSTAR          = -.33132E-2
MEAN_MOTION_DOT = -.1548738E-1
MEAN_MOTION_DDOT = .72617E-3

CCSDS_OMM_VERS = 2.0
CREATION_DATE  = 
ORIGINATOR     = 

OBJECT_NAME    = STARLINK-36645
OBJECT_ID      = 2026-025Q
CENTER_NAME    = EARTH
REF_FRAME      = TEME
TIME_SYSTEM    = UTC
MEAN_ELEMENT_THEORY = SGP/SGP4

EPOCH          = 2026-02-17T12:00:01.999296
MEAN_MOTION    = 15.98208595
ECCENTRICITY   = .0001298
INCLINATION    = 97.2756
RA_OF_ASC_NODE = 158.9622
ARG_OF_PERICENTER = 50.8665
MEAN_ANOMALY   = 318.8684

EPHEMERIS_TYPE = 0
CLASSIFICATION_TYPE = U
NORAD_CAT_ID   = 67707
ELEMENT_SET_NO = 999
REV_AT_EPOCH   = 221
BSTAR          = -.34195E-2
MEAN_MOTION_DOT = -.1555875E-1
MEAN_MOTION_DDOT = .7285E-3

CCSDS_OMM_VERS = 2.0
CREATION_DATE  = 
ORIGINATOR     = 

OBJECT_NAME    = STARLINK-36287
OBJECT_ID      = 2026-025R
CENTER_NAME    = EARTH
REF_FRAME      = TEME
TIME_SYSTEM    = UTC
MEAN_ELEMENT_THEORY = SGP/SGP4

EPOCH          = 2026-02-17T12:00:01.999296
MEAN_MOTION    = 15.98926721
ECCENTRICITY   = .0001237
INCLINATION    = 97.2749
RA_OF_ASC_NODE = 158.9684
ARG_OF_PERICENTER = 56.8700
MEAN_ANOMALY   = 327.2701

EPHEMERIS_TYPE = 0
CLASSIFICATION_TYPE = U
NORAD_CAT_ID   = 67708
ELEMENT_SET_NO = 999
REV_AT_EPOCH   = 276
BSTAR          = -.32448E-2
MEAN_MOTION_DOT = -.1536612E-1
MEAN_MOTION_DDOT = .71749E-3

CCSDS_OMM_VERS = 2.0
CREATION_DATE  = 
ORIGINATOR     = 

OBJECT_NAME    = STARLINK-36698
OBJECT_ID      = 2026-025S
CENTER_NAME    = EARTH
REF_FRAME      = TEME
TIME_SYSTEM    = UTC
MEAN_ELEMENT_THEORY = SGP/SGP4

EPOCH          = 2026-02-17T12:00:01.999296
MEAN_MOTION    = 15.99826698
ECCENTRICITY   = .0001313
INCLINATION    = 97.2746
RA_OF_ASC_NODE = 158.9761
ARG_OF_PERICENTER = 49.3293
MEAN_ANOMALY   = 352.3056

EPHEMERIS_TYPE = 0
CLASSIFICATION_TYPE = U
NORAD_CAT_ID   = 67709
ELEMENT_SET_NO = 999
REV_AT_EPOCH   = 260
BSTAR          = -.29444E-2
MEAN_MOTION_DOT = -.1467311E-1
MEAN_MOTION_DDOT = .66522E-3

CCSDS_OMM_VERS = 2.0
CREATION_DATE  = 
ORIGINATOR     = 

OBJECT_NAME    = STARLINK-36344
OBJECT_ID      = 2026-025T
CENTER_NAME    = EARTH
REF_FRAME      = TEME
TIME_SYSTEM    = UTC
MEAN_ELEMENT_THEORY = SGP/SGP4

EPOCH          = 2026-02-17T12:00:01.999296
MEAN_MOTION    = 15.99266944
ECCENTRICITY   = .0001223
INCLINATION    = 97.2749
RA_OF_ASC_NODE = 158.9714
ARG_OF_PERICENTER = 54.9099
MEAN_ANOMALY   = 335.9125

EPHEMERIS_TYPE = 0
CLASSIFICATION_TYPE = U
NORAD_CAT_ID   = 67710
ELEMENT_SET_NO = 999
REV_AT_EPOCH   = 276
BSTAR          = -.31278E-2
MEAN_MOTION_DOT = -.1509924E-1
MEAN_MOTION_DDOT = .69715E-3

CCSDS_OMM_VERS = 2.0
CREATION_DATE  = 
ORIGINATOR     = 

OBJECT_NAME    = STARLINK-36687
OBJECT_ID      = 2026-025U
CENTER_NAME    = EARTH
REF_FRAME      = TEME
TIME_SYSTEM    = UTC
MEAN_ELEMENT_THEORY = SGP/SGP4

EPOCH          = 2026-02-17T12:00:01.999296
MEAN_MOTION    = 15.99535320
ECCENTRICITY   = .0001385
INCLINATION    = 97.2746
RA_OF_ASC_NODE = 158.9737
ARG_OF_PERICENTER = 50.3643
MEAN_ANOMALY   = 345.5239

EPHEMERIS_TYPE = 0
CLASSIFICATION_TYPE = U
NORAD_CAT_ID   = 67711
ELEMENT_SET_NO = 999
REV_AT_EPOCH   = 276
BSTAR          = -.31076E-2
MEAN_MOTION_DOT = -.152279E-1
MEAN_MOTION_DDOT = .71034E-3

CCSDS_OMM_VERS = 2.0
CREATION_DATE  = 
ORIGINATOR     = 

OBJECT_NAME    = STARLINK-36705
OBJECT_ID      = 2026-025V
CENTER_NAME    = EARTH
REF_FRAME      = TEME
TIME_SYSTEM    = UTC
MEAN_ELEMENT_THEORY = SGP/SGP4

EPOCH          = 2026-02-17T12:00:01.999296
MEAN_MOTION    = 16.00141214
ECCENTRICITY   = .0001334
INCLINATION    = 97.2741
RA_OF_ASC_NODE = 158.9783
ARG_OF_PERICENTER = 53.8576
MEAN_ANOMALY   = 353.7477

EPHEMERIS_TYPE = 0
CLASSIFICATION_TYPE = U
NORAD_CAT_ID   = 67712
ELEMENT_SET_NO = 999
REV_AT_EPOCH   = 266
BSTAR          = -.29546E-2
MEAN_MOTION_DOT = -.1498388E-1
MEAN_MOTION_DDOT = .69405E-3

